STARLINK-2394
1 17813C 21018AC  21326.19375207 -.00015686  00000-0 -10510-2 0  3264
2 17813  53.0560  72.8742 0001407  83.8602 127.2835 15.06412185    15
